NORAD_CAT_ID,OBJECT_NAME,OBJECT_TYPE,EPOCH,MEAN_MOTION,ECCENTRICITY,INCLINATION,RA_OF_ASC_NODE,ARG_OF_PERICENTER,MEAN_ANOMALY,BSTAR,MEAN_MOTION_DOT,MEAN_MOTION_DDOT,TLE_LINE0,TLE_LINE1,TLE_LINE2,SEMIMAJOR_AXIS,PERIOD,APOGEE,PERIGEE,DECAYED
50813.0,STARLINK-3349,PAYLOAD,2023-01-18 23:19:54,15.08863971,0.000121,53.2143,262.4547,103.052,257.0608,0.00071198,0.00011069,0.0,0 STARLINK-3349,1 50813U 22001L   23018.97216279  .00011069  00000-0  71198-3 0  9995,2 50813  53.2143 262.4547 0001210 103.0520 257.0608 15.08863971 58832,6917.807,95.436,540.509,538.835,0.0
50813.0,STARLINK-3349,PAYLOAD,2023-01-19 08:52:13,15.0885905,9.89e-05,53.2139,260.6701,85.0757,275.0348,0.0003931,5.977e-05,0.0,0 STARLINK-3349,1 50813U 22001L   23019.36960046  .00005977  00000-0  39310-3 0  9998,2 50813  53.2139 260.6701 0000989  85.0757 275.0348 15.08859050 57644,6917.821999999999,95.436,540.371,539.003,0.0
50813.0,STARLINK-3349,PAYLOAD,2023-01-19 18:24:33,15.0882893,0.0001250999999999,53.2136,258.8859,86.7507,273.3628,-0.00037087,-6.184e-05,0.0,0 STARLINK-3349,1 50813U 22001L   23019.76704917 -.00006184  00000-0 -37087-3 0  9997,2 50813  53.2136 258.8859 0001251  86.7507 273.3628 15.08828930 58958,6917.914000000001,95.438,540.645,538.914,0.0
50813.0,STARLINK-3349,PAYLOAD,2023-01-20 08:43:01,15.08834196,0.0001097,53.2133,256.21,84.1804,275.9313,0.0008448,0.0001318,0.0,0 STARLINK-3349,1 50813U 22001L   23020.36321351  .00013180  00000-0  84480-3 0  9993,2 50813  53.2133 256.2100 0001097  84.1804 275.9313 15.08834196 59047,6917.898,95.438,540.5219999999999,539.004,0.0
50813.0,STARLINK-3349,PAYLOAD,2023-01-21 08:33:48,15.08845587,0.0001054,53.2131,251.7489,77.9925,282.1185,0.0005687,8.776e-05,0.0,0 STARLINK-3349,1 50813U 22001L   23021.35681498  .00008776  00000-0  56870-3 0  9991,2 50813  53.2131 251.7489 0001054  77.9925 282.1185 15.08845587 59191,6917.863,95.437,540.457,538.999,0.0
50813.0,STARLINK-3349,PAYLOAD,2023-01-23 00:18:26,15.08840501,0.0001459,53.2122,244.315,95.6296,264.4863,0.00045169,6.908e-05,0.0,0 STARLINK-3349,1 50813U 22001L   23023.01280814  .00006908  00000-0  45169-3 0  9997,2 50813  53.2122 244.3150 0001459  95.6296 264.4863 15.08840501 59446,6917.879,95.438,540.753,538.735,0.0
50813.0,STARLINK-3349,PAYLOAD,2023-01-23 19:23:04,15.08839893,0.0001173,53.2128,240.7431,98.3771,261.7354,0.00028737,4.289e-05,0.0,0 STARLINK-3349,1 50813U 22001L   23023.80769070  .00004289  00000-0  28737-3 0  9992,2 50813  53.2128 240.7431 0001173  98.3771 261.7354 15.08839893 59565,6917.880999999999,95.438,540.557,538.934,0.0
50813.0,STARLINK-3349,PAYLOAD,2023-01-25 00:00:00,15.08844658,0.0001355,53.2145,235.3893,95.2255,264.8892,0.00022942,3.366e-05,0.0,0 STARLINK-3349,1 50813U 22001L   23025.00001031  .00003366  00000-0  22942-3 0  9999,2 50813  53.2145 235.3893 0001355  95.2255 264.8892 15.08844658 59747,6917.866,95.437,540.669,538.794,0.0
50813.0,STARLINK-3349,PAYLOAD,2023-01-25 06:21:33,15.08840321,0.0001336,53.2146,234.2,94.9922,265.1222,0.00012594,1.717e-05,0.0,0 STARLINK-3349,1 50813U 22001L   23025.26497176  .00001717  00000-0  12594-3 0  9996,2 50813  53.2146 234.2000 0001336  94.9922 265.1222 15.08840321 58532,6917.879,95.438,540.669,538.82,0.0
50813.0,STARLINK-3349,PAYLOAD,2023-01-25 20:40:01,15.08842667,0.000137,53.2141,231.5247,83.3085,276.8063,2.4546e-05,1.03e-06,0.0,0 STARLINK-3349,1 50813U 22001L   23025.86113091  .00000103  00000-0  24546-4 0  9992,2 50813  53.2141 231.5247 0001370  83.3085 276.8063 15.08842667 59875,6917.871999999999,95.437,540.685,538.789,0.0
50813.0,STARLINK-3349,PAYLOAD,2023-01-26 12:33:53,15.08838941,0.0001250999999999,53.2134,228.5517,90.202,269.9115,4.8178e-05,4.79e-06,0.0,0 STARLINK-3349,1 50813U 22001L   23026.52353263  .00000479  00000-0  48178-4 0  9996,2 50813  53.2134 228.5517 0001251  90.2020 269.9115 15.08838941 58721,6917.884,95.438,540.614,538.883,0.0
50813.0,STARLINK-3349,PAYLOAD,2023-01-27 12:24:40,15.08834884,0.0001237,53.2144,224.0916,88.1454,271.968,7.5435e-05,9.13e-06,0.0,0 STARLINK-3349,1 50813U 22001L   23027.51713771  .00000913  00000-0  75435-4 0  9999,2 50813  53.2144 224.0916 0001237  88.1454 271.9680 15.08834884 60126,6917.896,95.438,540.617,538.905,0.0
50813.0,STARLINK-3349,PAYLOAD,2023-01-27 20:21:36,15.08837051,0.0001171999999999,53.2147,222.6046,87.9409,272.1717,4.4912e-05,4.27e-06,0.0,0 STARLINK-3349,1 50813U 22001L   23027.84833763  .00000427  00000-0  44912-4 0  9995,2 50813  53.2147 222.6046 0001172  87.9409 272.1717 15.08837051 58920,6917.889,95.438,540.565,538.944,0.0
50813.0,STARLINK-3349,PAYLOAD,2023-01-28 05:53:55,15.08838562,0.0001177,53.2147,220.8204,88.0185,272.0942,5.3966e-05,5.71e-06,0.0,0 STARLINK-3349,1 50813U 22001L   23028.24577654  .00000571  00000-0  53966-4 0  9993,2 50813  53.2147 220.8204 0001177  88.0185 272.0942 15.08838562 58987,6917.885,95.438,540.564,538.936,0.0
50813.0,STARLINK-3349,PAYLOAD,2023-01-28 18:36:59,15.08841271,0.0001155,53.215,218.4417,89.9628,270.1497,8.8244e-05,1.117e-05,0.0,0 STARLINK-3349,1 50813U 22001L   23028.77569411  .00001117  00000-0  88244-4 0  9997,2 50813  53.2150 218.4417 0001155  89.9628 270.1497 15.08841271 60313,6917.877,95.437,540.541,538.942,0.0
50813.0,STARLINK-3349,PAYLOAD,2023-01-28 20:12:22,15.08843384,0.0001132,53.2149,218.144,87.9757,272.1365,7.9646e-05,9.8e-06,0.0,0 STARLINK-3349,1 50813U 22001L   23028.84193281  .00000980  00000-0  79646-4 0  9996,2 50813  53.2149 218.1440 0001132  87.9757 272.1365 15.08843384 59074,6917.87,95.437,540.518,538.952,0.0
50813.0,STARLINK-3349,PAYLOAD,2023-01-29 12:06:14,15.0883422,0.000111,53.2147,215.1697,85.6254,274.4864,6.4662e-05,7.41e-06,0.0,0 STARLINK-3349,1 50813U 22001L   23029.50433919  .00000741  00000-0  64662-4 0  9992,2 50813  53.2147 215.1697 0001110  85.6254 274.4864 15.08834220 60425,6917.898,95.438,540.531,538.995,0.0
50813.0,STARLINK-3349,PAYLOAD,2023-01-29 21:38:33,15.08837116,0.0001102,53.2147,213.3852,86.0555,274.0564,6.0526e-05,6.76e-06,0.0,0 STARLINK-3349,1 50813U 22001L   23029.90177822  .00000676  00000-0  60526-4 0  9996,2 50813  53.2147 213.3852 0001102  86.0555 274.0564 15.08837116 59235,6917.889,95.438,540.517,538.992,0.0
50813.0,STARLINK-3349,PAYLOAD,2023-01-30 05:35:29,15.08837376,0.00011,53.2145,211.8983,84.8452,275.2666,4.8111e-05,4.78e-06,0.0,0 STARLINK-3349,1 50813U 22001L   23030.23297882  .00000478  00000-0  48111-4 0  9999,2 50813  53.2145 211.8983 0001100  84.8452 275.2666 15.08837376 59280,6917.888,95.438,540.514,538.992,0.0
50813.0,STARLINK-3349,PAYLOAD,2023-01-31 11:47:48,15.08839876,0.0001134,53.2142,206.2483,80.9735,279.1385,9.0172e-05,1.148e-05,0.0,0 STARLINK-3349,1 50813U 22001L   23031.49153608  .00001148  00000-0  90172-4 0  9994,2 50813  53.2142 206.2483 0001134  80.9735 279.1385 15.08839876 60727,6917.881,95.438,540.53,538.961,0.0
50813.0,STARLINK-3349,PAYLOAD,2023-01-31 19:44:44,15.08843699,0.0001118,53.2143,204.7615,80.3806,279.7312,9.7493e-05,1.264e-05,0.0,0 STARLINK-3349,1 50813U 22001L   23031.82273326  .00001264  00000-0  97493-4 0  9993,2 50813  53.2143 204.7615 0001118  80.3806 279.7312 15.08843699 59523,6917.869,95.437,540.508,538.961,0.0
50813.0,STARLINK-3349,PAYLOAD,2023-02-01 11:38:36,15.08837377,0.0001302,53.2126,201.7877,85.1184,274.9957,4.9463e-05,4.99e-06,0.0,0 STARLINK-3349,1 50813U 22001L   23032.48513895  .00000499  00000-0  49463-4 0  9997,2 50813  53.2126 201.7877 0001302  85.1184 274.9957 15.08837377 59627,6917.888,95.438,540.654,538.853,0.0
50813.0,STARLINK-3349,PAYLOAD,2023-02-02 03:32:27,15.08838899,0.0001183,53.2145,198.8138,82.037,278.0756,2.7848e-05,1.55e-06,0.0,0 STARLINK-3349,1 50813U 22001L   23033.14753886  .00000155  00000-0  27848-4 0  9999,2 50813  53.2145 198.8138 0001183  82.0370 278.0756 15.08838899 60976,6917.884,95.438,540.567,538.93,0.0
50813.0,STARLINK-3349,PAYLOAD,2023-02-02 09:54:00,15.08837856,0.0001344,53.2127,197.6241,90.0999,270.0147,2.4418e-05,1.01e-06,0.0,0 STARLINK-3349,1 50813U 22001L   23033.41250018  .00000101  00000-0  24418-4 0  9999,2 50813  53.2127 197.6241 0001344  90.0999 270.0147 15.08837856 59766,6917.887,95.438,540.682,538.822,0.0
50813.0,STARLINK-3349,PAYLOAD,2023-02-03 11:20:10,15.08833172,0.0001264,53.2142,192.8662,95.7738,264.3398,4.3854e-05,4.1e-06,0.0,0 STARLINK-3349,1 50813U 22001L   23034.47234435  .00000410  00000-0  43854-4 0  9999,2 50813  53.2142 192.8662 0001264  95.7738 264.3398 15.08833172 61170,6917.901,95.438,540.641,538.892,0.0
50813.0,STARLINK-3349,PAYLOAD,2023-02-03 19:17:05,15.08837861,0.0001248,53.2142,191.3794,94.3307,265.7828,7.7355e-05,9.43e-06,0.0,0 STARLINK-3349,1 50813U 22001L   23034.80354142  .00000943  00000-0  77355-4 0  9998,2 50813  53.2142 191.3794 0001248  94.3307 265.7828 15.08837861 59976,6917.887,95.438,540.615,538.889,0.0
50813.0,STARLINK-3349,PAYLOAD,2023-02-04 14:21:43,15.08842084,0.0001201,53.2146,187.811,94.9678,265.1451,0.00011259,1.505e-05,0.0,0 STARLINK-3349,1 50813U 22001L   23035.59841926  .00001505  00000-0  11259-3 0  9991,2 50813  53.2146 187.8110 0001201  94.9678 265.1451 15.08842084 60092,6917.874,95.437,540.57,538.908,0.0
50813.0,STARLINK-3349,PAYLOAD,2023-02-04 19:07:52,15.08846651,0.0001181,53.2149,186.9188,93.6536,266.4591,0.0001255,1.71e-05,0.0,0 STARLINK-3349,1 50813U 22001L   23035.79713599  .00001710  00000-0  12550-3 0  9990,2 50813  53.2149 186.9188 0001181  93.6536 266.4591 15.08846651 61371,6917.86,95.437,540.542,538.908,0.0
50813.0,STARLINK-3349,PAYLOAD,2023-02-05 03:04:48,15.08838201,0.0001128,53.2155,185.4323,87.335,272.7771,8.1668e-05,1.012e-05,0.0,0 STARLINK-3349,1 50813U 22001L   23036.12834260  .00001012  00000-0  81668-4 0  9999,2 50813  53.2155 185.4323 0001128  87.3350 272.7771 15.08838201 61426,6917.886,95.438,540.531,538.971,0.0
50813.0,STARLINK-3349,PAYLOAD,2023-02-05 14:12:31,15.08834895,0.0001252,53.2151,183.351,86.8839,273.2296,6.3173e-05,7.18e-06,0.0,0 STARLINK-3349,1 50813U 22001L   23036.59202717  .00000718  00000-0  63173-4 0  9999,2 50813  53.2151 183.3510 0001252  86.8839 273.2296 15.08834895 60243,6917.896,95.438,540.627,538.895,0.0
